{"fetched_at":"2026-03-28T16:33:49Z","count":6709,"tles":[{"name":"CLUSTER II-FM7 (SAMBA)","line1":"1 26410U 00041A   26087.80509244  .00002770  00000+0  00000+0 0  9997","line2":"2 26410 149.3509  37.9375 8950242 254.2071   0.2686  0.44808340 19947","category":"Other"}]}